{
  "type": "FeatureCollection",
  "features": [
    {
      "type": "Feature",
      "properties": {
        "norad_id": 43260,
        "name": "GAOFEN-1 03",
        "group": "resource",
        "lat": 65.63547947850678,
        "lon": 25.62583217749398,
        "alt_km": 634.4970108532607,
        "timestamp": "2025-12-12T05:47:28.429598+00:00",
        "meta_object_name": "GAOFEN-1 03",
        "meta_object_id": "2018-031B",
        "meta_epoch": "2025-12-12T00:36:34.672320",
        "meta_mean_motion": 14.76434629,
        "meta_eccentricity": 0.00020346,
        "meta_inclination": 98.08,
        "meta_ra_of_asc_node": 43.6914,
        "meta_arg_of_pericenter": 325.4768,
        "meta_mean_anomaly": 34.6309,
        "meta_ephemeris_type": 0,
        "meta_classification_type": "U",
        "meta_norad_cat_id": 43260,
        "meta_element_set_no": 999,
        "meta_rev_at_epoch": 41507,
        "meta_bstar": 0.00022273804,
        "meta_mean_motion_dot": 1.497e-05,
        "meta_mean_motion_ddot": 0,
        "tle_line1": "1 43260U 18031B   25346.02540130  .00001497  00000+0  22274-3 0  9993",
        "tle_line2": "2 43260  98.0800  43.6914 0002034 325.4768  34.6309 14.76434629415071"
      },
      "geometry": {
        "type": "Point",
        "coordinates": [
          25.62583217749398,
          65.63547947850678
        ]
      }
    },
    {
      "type": "Feature",
      "properties": {
        "norad_id": 43262,
        "name": "GAOFEN-1 04",
        "group": "resource",
        "lat": -16.266894267395493,
        "lon": -138.30001948992606,
        "alt_km": 645.9940422934642,
        "timestamp": "2025-12-12T05:47:28.429608+00:00",
        "meta_object_name": "GAOFEN-1 04",
        "meta_object_id": "2018-031D",
        "meta_epoch": "2025-12-12T00:01:31.359360",
        "meta_mean_motion": 14.7644788,
        "meta_eccentricity": 0.00010775,
        "meta_inclination": 98.0804,
        "meta_ra_of_asc_node": 43.8355,
        "meta_arg_of_pericenter": 57.4038,
        "meta_mean_anomaly": 302.7275,
        "meta_ephemeris_type": 0,
        "meta_classification_type": "U",
        "meta_norad_cat_id": 43262,
        "meta_element_set_no": 999,
        "meta_rev_at_epoch": 41506,
        "meta_bstar": 0.00026257302,
        "meta_mean_motion_dot": 1.775e-05,
        "meta_mean_motion_ddot": 0,
        "tle_line1": "1 43262U 18031D   25346.00105740  .00001775  00000+0  26257-3 0  9991",
        "tle_line2": "2 43262  98.0804  43.8355 0001077  57.4038 302.7275 14.76447880415069"
      },
      "geometry": {
        "type": "Point",
        "coordinates": [
          -138.30001948992606,
          -16.266894267395493
        ]
      }
    },
    {
      "type": "Feature",
      "properties": {
        "norad_id": 43437,
        "name": "SENTINEL-3B",
        "group": "resource",
        "lat": 81.13357930649113,
        "lon": -51.86636561677185,
        "alt_km": 794.0829918584368,
        "timestamp": "2025-12-12T05:47:28.429618+00:00",
        "meta_object_name": "SENTINEL-3B",
        "meta_object_id": "2018-039A",
        "meta_epoch": "2025-12-11T10:50:50.552736",
        "meta_mean_motion": 14.26742264,
        "meta_eccentricity": 0.00015576,
        "meta_inclination": 98.6268,
        "meta_ra_of_asc_node": 50.6556,
        "meta_arg_of_pericenter": 104.2946,
        "meta_mean_anomaly": 255.8408,
        "meta_ephemeris_type": 0,
        "meta_classification_type": "U",
        "meta_norad_cat_id": 43437,
        "meta_element_set_no": 999,
        "meta_rev_at_epoch": 39735,
        "meta_bstar": 0.00012251697,
        "meta_mean_motion_dot": 2.53e-06,
        "meta_mean_motion_ddot": 0,
        "tle_line1": "1 43437U 18039A   25345.45197399  .00000253  00000+0  12252-3 0  9992",
        "tle_line2": "2 43437  98.6268  50.6556 0001557 104.2946 255.8408 14.26742264397350"
      },
      "geometry": {
        "type": "Point",
        "coordinates": [
          -51.86636561677185,
          81.13357930649113
        ]
      }
    },
    {
      "type": "Feature",
      "properties": {
        "norad_id": 43461,
        "name": "GAOFEN-5 01",
        "group": "resource",
        "lat": 20.425924572400596,
        "lon": -53.96722294574568,
        "alt_km": 691.2827211986323,
        "timestamp": "2025-12-12T05:47:28.429628+00:00",
        "meta_object_name": "GAOFEN-5 01",
        "meta_object_id": "2018-043A",
        "meta_epoch": "2025-12-11T21:28:30.765792",
        "meta_mean_motion": 14.60408706,
        "meta_eccentricity": 0.00010119,
        "meta_inclination": 98.4325,
        "meta_ra_of_asc_node": 308.8472,
        "meta_arg_of_pericenter": 343.2547,
        "meta_mean_anomaly": 16.8619,
        "meta_ephemeris_type": 0,
        "meta_classification_type": "U",
        "meta_norad_cat_id": 43461,
        "meta_element_set_no": 999,
        "meta_rev_at_epoch": 40435,
        "meta_bstar": 0.00017528587,
        "meta_mean_motion_dot": 8e-06,
        "meta_mean_motion_ddot": 0,
        "tle_line1": "1 43461U 18043A   25345.89480053  .00000800  00000+0  17529-3 0  9994",
        "tle_line2": "2 43461  98.4325 308.8472 0001011 343.2547  16.8619 14.60408706404357"
      },
      "geometry": {
        "type": "Point",
        "coordinates": [
          -53.96722294574568,
          20.425924572400596
        ]
      }
    },
    {
      "type": "Feature",
      "properties": {
        "norad_id": 43484,
        "name": "GAOFEN-6",
        "group": "resource",
        "lat": -12.85269766771428,
        "lon": 52.31717918923394,
        "alt_km": 642.7448595469859,
        "timestamp": "2025-12-12T05:47:28.429643+00:00",
        "meta_object_name": "GAOFEN-6",
        "meta_object_id": "2018-048A",
        "meta_epoch": "2025-12-12T00:58:14.342592",
        "meta_mean_motion": 14.76564444,
        "meta_eccentricity": 0.00132605,
        "meta_inclination": 97.8028,
        "meta_ra_of_asc_node": 50.3302,
        "meta_arg_of_pericenter": 65.6381,
        "meta_mean_anomaly": 294.6212,
        "meta_ephemeris_type": 0,
        "meta_classification_type": "U",
        "meta_norad_cat_id": 43484,
        "meta_element_set_no": 999,
        "meta_rev_at_epoch": 40577,
        "meta_bstar": 0.00019798376,
        "meta_mean_motion_dot": 1.334e-05,
        "meta_mean_motion_ddot": 0,
        "tle_line1": "1 43484U 18048A   25346.04044378  .00001334  00000+0  19798-3 0  9991",
        "tle_line2": "2 43484  97.8028  50.3302 0013260  65.6381 294.6212 14.76564444405777"
      },
      "geometry": {
        "type": "Point",
        "coordinates": [
          52.31717918923394,
          -12.85269766771428
        ]
      }
    },
    {
      "type": "Feature",
      "properties": {
        "norad_id": 43585,
        "name": "GAOFEN-11 01",
        "group": "resource",
        "lat": 23.470391674639828,
        "lon": 46.05257765403249,
        "alt_km": 417.5632268337504,
        "timestamp": "2025-12-12T05:47:28.429654+00:00",
        "meta_object_name": "GAOFEN-11 01",
        "meta_object_id": "2018-063A",
        "meta_epoch": "2025-12-11T23:29:18.932640",
        "meta_mean_motion": 15.49189127,
        "meta_eccentricity": 0.0004277,
        "meta_inclination": 97.1557,
        "meta_ra_of_asc_node": 48.9192,
        "meta_arg_of_pericenter": 317.6846,
        "meta_mean_anomaly": 42.4075,
        "meta_ephemeris_type": 0,
        "meta_classification_type": "U",
        "meta_norad_cat_id": 43585,
        "meta_element_set_no": 999,
        "meta_rev_at_epoch": 41130,
        "meta_bstar": 0.00053640609,
        "meta_mean_motion_dot": 0.00029202,
        "meta_mean_motion_ddot": 0,
        "tle_line1": "1 43585U 18063A   25345.97869135  .00029202  00000+0  53641-3 0  9996",
        "tle_line2": "2 43585  97.1557  48.9192 0004277 317.6846  42.4075 15.49189127411307"
      },
      "geometry": {
        "type": "Point",
        "coordinates": [
          46.05257765403249,
          23.470391674639828
        ]
      }
    },
    {
      "type": "Feature",
      "properties": {
        "norad_id": 43613,
        "name": "ICESAT-2",
        "group": "resource",
        "lat": 22.32020792351165,
        "lon": 61.426600239207154,
        "alt_km": 478.72679316028825,
        "timestamp": "2025-12-12T05:47:28.429664+00:00",
        "meta_object_name": "ICESAT-2",
        "meta_object_id": "2018-070A",
        "meta_epoch": "2025-12-12T00:23:23.810784",
        "meta_mean_motion": 15.28366509,
        "meta_eccentricity": 0.00027026,
        "meta_inclination": 92.0043,
        "meta_ra_of_asc_node": 240.5421,
        "meta_arg_of_pericenter": 151.2853,
        "meta_mean_anomaly": 208.8546,
        "meta_ephemeris_type": 0,
        "meta_classification_type": "U",
        "meta_norad_cat_id": 43613,
        "meta_element_set_no": 999,
        "meta_rev_at_epoch": 40387,
        "meta_bstar": 0.00068481157,
        "meta_mean_motion_dot": 0.00018929,
        "meta_mean_motion_ddot": 0,
        "tle_line1": "1 43613U 18070A   25346.01624781  .00018929  00000+0  68481-3 0  9990",
        "tle_line2": "2 43613  92.0043 240.5421 0002702 151.2853 208.8546 15.28366509403871"
      },
      "geometry": {
        "type": "Point",
        "coordinates": [
          61.426600239207154,
          22.32020792351165
        ]
      }
    }
  ]
}